[{"OBJECT_NAME":"STARLINK-31304","OBJECT_ID":"2024-049A","EPOCH":"2026-03-09T22:00:01.999584","MEAN_MOTION":15.83676704,"ECCENTRICITY":0.00242928,"INCLINATION":42.9839,"RA_OF_ASC_NODE":111.8316,"ARG_OF_PERICENTER":80.055,"MEAN_ANOMALY":143.517,"EPHEMERIS_TYPE":0,"CLASSIFICATION_TYPE":"U","NORAD_CAT_ID":59231,"ELEMENT_SET_NO":999,"REV_AT_EPOCH":589,"BSTAR":0.0011658294,"MEAN_MOTION_DOT":0.00279367,"MEAN_MOTION_DDOT":0},{"OBJECT_NAME":"STARLINK-36405","OBJECT_ID":"2026-036T","EPOCH":"2026-03-08T22:35:48.109056","MEAN_MOTION":15.81965994,"ECCENTRICITY":0.00021674,"INCLINATION":42.9987,"RA_OF_ASC_NODE":254.2109,"ARG_OF_PERICENTER":254.4983,"MEAN_ANOMALY":105.565,"EPHEMERIS_TYPE":0,"CLASSIFICATION_TYPE":"U","NORAD_CAT_ID":67921,"ELEMENT_SET_NO":999,"REV_AT_EPOCH":355,"BSTAR":0.00016068886,"MEAN_MOTION_DOT":0.00033355,"MEAN_MOTION_DDOT":0}]
